{
  "type": "FeatureCollection",
  "features": [
    {
      "type": "Feature",
      "properties": {
        "norad_id": 34797,
        "name": "COSMOS 2251 DEB",
        "group": "cosmos-2251-debris",
        "lat": 16.370313613086285,
        "lon": -65.93107616514776,
        "alt_km": 733.2912967033517,
        "timestamp": "2025-12-02T13:52:17.656518+00:00",
        "meta_object_name": "COSMOS 2251 DEB",
        "meta_object_id": "1993-036ABA",
        "meta_epoch": "2025-12-01T18:48:13.577472",
        "meta_mean_motion": 14.42515902,
        "meta_eccentricity": 0.00725428,
        "meta_inclination": 73.9762,
        "meta_ra_of_asc_node": 120.3905,
        "meta_arg_of_pericenter": 235.5491,
        "meta_mean_anomaly": 123.8797,
        "meta_ephemeris_type": 0,
        "meta_classification_type": "U",
        "meta_norad_cat_id": 34797,
        "meta_element_set_no": 999,
        "meta_rev_at_epoch": 87257,
        "meta_bstar": 0.002216712,
        "meta_mean_motion_dot": 7.566e-05,
        "meta_mean_motion_ddot": 0,
        "tle_line1": "1 34797U 93036ABA 25335.78349048  .00007566  00000+0  22167-2 0  9995",
        "tle_line2": "2 34797  73.9762 120.3905 0072542 235.5491 123.8797 14.42515902872574"
      },
      "geometry": {
        "type": "Point",
        "coordinates": [
          -65.93107616514776,
          16.370313613086285
        ]
      }
    },
    {
      "type": "Feature",
      "properties": {
        "norad_id": 34813,
        "name": "COSMOS 2251 DEB",
        "group": "cosmos-2251-debris",
        "lat": -9.12789973818006,
        "lon": 146.71506506501453,
        "alt_km": 1400.4891562074718,
        "timestamp": "2025-12-02T13:52:17.656528+00:00",
        "meta_object_name": "COSMOS 2251 DEB",
        "meta_object_id": "1993-036ABC",
        "meta_epoch": "2025-11-03T01:59:23.955360",
        "meta_mean_motion": 13.49745849,
        "meta_eccentricity": 0.0451123,
        "meta_inclination": 73.9278,
        "meta_ra_of_asc_node": 196.7226,
        "meta_arg_of_pericenter": 237.9242,
        "meta_mean_anomaly": 117.7316,
        "meta_ephemeris_type": 0,
        "meta_classification_type": "U",
        "meta_norad_cat_id": 34813,
        "meta_element_set_no": 999,
        "meta_rev_at_epoch": 81120,
        "meta_bstar": 0.0019861882,
        "meta_mean_motion_dot": 2.346e-05,
        "meta_mean_motion_ddot": 0,
        "tle_line1": "1 34813U 93036ABC 25307.08291615  .00002346  00000+0  19862-2 0  9991",
        "tle_line2": "2 34813  73.9278 196.7226 0451123 237.9242 117.7316 13.49745849811207"
      },
      "geometry": {
        "type": "Point",
        "coordinates": [
          146.71506506501453,
          -9.12789973818006
        ]
      }
    },
    {
      "type": "Feature",
      "properties": {
        "norad_id": 34814,
        "name": "COSMOS 2251 DEB",
        "group": "cosmos-2251-debris",
        "lat": 0.035026659554316456,
        "lon": -15.707157275744496,
        "alt_km": 794.5893970107554,
        "timestamp": "2025-12-02T13:52:17.656539+00:00",
        "meta_object_name": "COSMOS 2251 DEB",
        "meta_object_id": "1993-036ABD",
        "meta_epoch": "2025-12-02T07:14:30.016320",
        "meta_mean_motion": 14.36814805,
        "meta_eccentricity": 0.00568554,
        "meta_inclination": 73.8956,
        "meta_ra_of_asc_node": 344.7947,
        "meta_arg_of_pericenter": 236.0639,
        "meta_mean_anomaly": 135.2279,
        "meta_ephemeris_type": 0,
        "meta_classification_type": "U",
        "meta_norad_cat_id": 34814,
        "meta_element_set_no": 999,
        "meta_rev_at_epoch": 87183,
        "meta_bstar": 0.001047067,
        "meta_mean_motion_dot": 3.124e-05,
        "meta_mean_motion_ddot": 0,
        "tle_line1": "1 34814U 93036ABD 25336.30173630  .00003124  00000+0  10471-2 0  9997",
        "tle_line2": "2 34814  73.8956 344.7947 0056855 236.0639 135.2279 14.36814805871832"
      },
      "geometry": {
        "type": "Point",
        "coordinates": [
          -15.707157275744496,
          0.035026659554316456
        ]
      }
    },
    {
      "type": "Feature",
      "properties": {
        "norad_id": 34815,
        "name": "COSMOS 2251 DEB",
        "group": "cosmos-2251-debris",
        "lat": 73.27099576125727,
        "lon": -26.115173920086573,
        "alt_km": 643.2750783881665,
        "timestamp": "2025-12-02T13:52:17.656549+00:00",
        "meta_object_name": "COSMOS 2251 DEB",
        "meta_object_id": "1993-036ABE",
        "meta_epoch": "2025-12-02T05:22:05.386080",
        "meta_mean_motion": 14.78056842,
        "meta_eccentricity": 0.00590647,
        "meta_inclination": 74.0457,
        "meta_ra_of_asc_node": 262.4443,
        "meta_arg_of_pericenter": 333.8763,
        "meta_mean_anomaly": 25.9434,
        "meta_ephemeris_type": 0,
        "meta_classification_type": "U",
        "meta_norad_cat_id": 34815,
        "meta_element_set_no": 999,
        "meta_rev_at_epoch": 88472,
        "meta_bstar": 0.0014688562,
        "meta_mean_motion_dot": 0.0001091,
        "meta_mean_motion_ddot": 0,
        "tle_line1": "1 34815U 93036ABE 25336.22367345  .00010910  00000+0  14689-2 0  9993",
        "tle_line2": "2 34815  74.0457 262.4443 0059064 333.8763  25.9434 14.78056842884723"
      },
      "geometry": {
        "type": "Point",
        "coordinates": [
          -26.115173920086573,
          73.27099576125727
        ]
      }
    },
    {
      "type": "Feature",
      "properties": {
        "norad_id": 34816,
        "name": "COSMOS 2251 DEB",
        "group": "cosmos-2251-debris",
        "lat": 73.27815311351485,
        "lon": -94.4962788162901,
        "alt_km": 1212.2219774666373,
        "timestamp": "2025-12-02T13:52:17.656560+00:00",
        "meta_object_name": "COSMOS 2251 DEB",
        "meta_object_id": "1993-036ABF",
        "meta_epoch": "2025-11-30T23:16:43.926240",
        "meta_mean_motion": 13.58274741,
        "meta_eccentricity": 0.03738355,
        "meta_inclination": 73.8858,
        "meta_ra_of_asc_node": 162.3254,
        "meta_arg_of_pericenter": 228.8384,
        "meta_mean_anomaly": 288.8957,
        "meta_ephemeris_type": 0,
        "meta_classification_type": "U",
        "meta_norad_cat_id": 34816,
        "meta_element_set_no": 999,
        "meta_rev_at_epoch": 82623,
        "meta_bstar": 0.00097339141,
        "meta_mean_motion_dot": 1.091e-05,
        "meta_mean_motion_ddot": 0,
        "tle_line1": "1 34816U 93036ABF 25334.96995285  .00001091  00000+0  97339-3 0  9997",
        "tle_line2": "2 34816  73.8858 162.3254 0373835 228.8384 288.8957 13.58274741826230"
      },
      "geometry": {
        "type": "Point",
        "coordinates": [
          -94.4962788162901,
          73.27815311351485
        ]
      }
    },
    {
      "type": "Feature",
      "properties": {
        "norad_id": 34818,
        "name": "COSMOS 2251 DEB",
        "group": "cosmos-2251-debris",
        "lat": 62.99128137035234,
        "lon": -10.20658877057062,
        "alt_km": 748.0849352580726,
        "timestamp": "2025-12-02T13:52:17.656570+00:00",
        "meta_object_name": "COSMOS 2251 DEB",
        "meta_object_id": "1993-036ABH",
        "meta_epoch": "2025-11-30T17:16:43.666176",
        "meta_mean_motion": 14.36939866,
        "meta_eccentricity": 0.00236088,
        "meta_inclination": 74.0352,
        "meta_ra_of_asc_node": 319.0407,
        "meta_arg_of_pericenter": 38.0609,
        "meta_mean_anomaly": 142.0476,
        "meta_ephemeris_type": 0,
        "meta_classification_type": "U",
        "meta_norad_cat_id": 34818,
        "meta_element_set_no": 999,
        "meta_rev_at_epoch": 87197,
        "meta_bstar": 0.00023086476,
        "meta_mean_motion_dot": 6.6e-06,
        "meta_mean_motion_ddot": 0,
        "tle_line1": "1 34818U 93036ABH 25334.71994984  .00000660  00000+0  23086-3 0  9996",
        "tle_line2": "2 34818  74.0352 319.0407 0023608  38.0609 142.0476 14.36939866871977"
      },
      "geometry": {
        "type": "Point",
        "coordinates": [
          -10.20658877057062,
          62.99128137035234
        ]
      }
    },
    {
      "type": "Feature",
      "properties": {
        "norad_id": 34819,
        "name": "COSMOS 2251 DEB",
        "group": "cosmos-2251-debris",
        "lat": 72.57068088924001,
        "lon": -131.89362488259084,
        "alt_km": 685.1463479632284,
        "timestamp": "2025-12-02T13:52:17.656585+00:00",
        "meta_object_name": "COSMOS 2251 DEB",
        "meta_object_id": "1993-036ABJ",
        "meta_epoch": "2025-12-02T05:48:59.256000",
        "meta_mean_motion": 14.63708417,
        "meta_eccentricity": 0.00160944,
        "meta_inclination": 74.0169,
        "meta_ra_of_asc_node": 162.834,
        "meta_arg_of_pericenter": 256.355,
        "meta_mean_anomaly": 218.836,
        "meta_ephemeris_type": 0,
        "meta_classification_type": "U",
        "meta_norad_cat_id": 34819,
        "meta_element_set_no": 999,
        "meta_rev_at_epoch": 88075,
        "meta_bstar": 0.0016098211,
        "meta_mean_motion_dot": 8.378e-05,
        "meta_mean_motion_ddot": 0,
        "tle_line1": "1 34819U 93036ABJ 25336.24235250  .00008378  00000+0  16098-2 0  9999",
        "tle_line2": "2 34819  74.0169 162.8340 0016094 256.3550 218.8360 14.63708417880751"
      },
      "geometry": {
        "type": "Point",
        "coordinates": [
          -131.89362488259084,
          72.57068088924001
        ]
      }
    }
  ]
}